ONEWEB-0698             
1 61604U 24188L   26159.12331937 -.00000233  00000+0 -69430-3 0  9996
2 61604  87.8893  22.8858 0000633  86.9614 273.1586 13.11419870 83289
ONEWEB-0699             
1 61605U 24188M   26159.20533092  .00000295  00000+0  80802-3 0  9994
2 61605  87.8836  38.0549 0001356 100.3608 259.7672 13.10370248 82133
ONEWEB-0700             
1 61606U 24188N   26159.20698837  .00000169  00000+0  44769-3 0  9996
2 61606  87.8855  37.9622 0001734 105.3439 254.7881 13.10370056 82125
ONEWEB-0701             
1 61607U 24188P   26159.22357251 -.00000533  00000+0 -15634-2 0  9996
2 61607  87.8843  38.0506 0001308 107.7211 252.4059 13.10371162 82139
ONEWEB-0702             
1 61608U 24188Q   26159.16911444  .00000014  00000+0  34514-5 0  9993
2 61608  87.8911  22.7804 0001657 118.7699 241.3595 13.11416149 83304
ONEWEB-0704             
1 61609U 24188R   26159.21196575 -.00000062  00000+0 -21395-3 0  9996
2 61609  87.8851  38.0414 0001852 117.1570 242.9746 13.10370203 82115
ONEWEB-0705             
1 61610U 24188S   26159.21694952 -.00000025  00000+0 -10876-3 0  9991
2 61610  87.8848  38.0462 0002465 105.0169 255.1232 13.10367509 74287
ONEWEB-0706             
1 61611U 24188T   26159.20201426  .00000405  00000+0  11237-2 0  9992
2 61611  87.8842  38.0547 0001861 101.5880 258.5456 13.10370668 82202
ONEWEB-0707             
1 61612U 24188U   26159.20864715  .00000075  00000+0  17726-3 0  9992
2 61612  87.8845  38.0468 0001790 101.2055 258.9273 13.10369810 82141
ONEWEB-0708             
1 61613U 24188V   26159.15053460 -.00000561  00000+0 -16423-2 0  9998
2 61613  87.8841  38.0776 0002307  87.8466 272.2925 13.10371793 82113
