[{"OBJECT_NAME":"ONEWEB-0698","OBJECT_ID":"2024-188L","EPOCH":"2026-06-08T02:57:34.793568","MEAN_MOTION":13.1141987,"ECCENTRICITY":6.33e-05,"INCLINATION":87.8893,"RA_OF_ASC_NODE":22.8858,"ARG_OF_PERICENTER":86.9614,"MEAN_ANOMALY":273.1586,"EPHEMERIS_TYPE":0,"CLASSIFICATION_TYPE":"U","NORAD_CAT_ID":61604,"ELEMENT_SET_NO":999,"REV_AT_EPOCH":8328,"BSTAR":-0.0006943,"MEAN_MOTION_DOT":-2.33e-06,"MEAN_MOTION_DDOT":0.0},{"OBJECT_NAME":"ONEWEB-0699","OBJECT_ID":"2024-188M","EPOCH":"2026-06-08T04:55:40.591488","MEAN_MOTION":13.10370248,"ECCENTRICITY":0.0001356,"INCLINATION":87.8836,"RA_OF_ASC_NODE":38.0549,"ARG_OF_PERICENTER":100.3608,"MEAN_ANOMALY":259.7672,"EPHEMERIS_TYPE":0,"CLASSIFICATION_TYPE":"U","NORAD_CAT_ID":61605,"ELEMENT_SET_NO":999,"REV_AT_EPOCH":8213,"BSTAR":0.00080802,"MEAN_MOTION_DOT":2.95e-06,"MEAN_MOTION_DDOT":0.0},{"OBJECT_NAME":"ONEWEB-0700","OBJECT_ID":"2024-188N","EPOCH":"2026-06-08T04:58:03.795168","MEAN_MOTION":13.10370056,"ECCENTRICITY":0.0001734,"INCLINATION":87.8855,"RA_OF_ASC_NODE":37.9622,"ARG_OF_PERICENTER":105.3439,"MEAN_ANOMALY":254.7881,"EPHEMERIS_TYPE":0,"CLASSIFICATION_TYPE":"U","NORAD_CAT_ID":61606,"ELEMENT_SET_NO":999,"REV_AT_EPOCH":8212,"BSTAR":0.00044769,"MEAN_MOTION_DOT":1.69e-06,"MEAN_MOTION_DDOT":0.0},{"OBJECT_NAME":"ONEWEB-0701","OBJECT_ID":"2024-188P","EPOCH":"2026-06-08T05:21:56.664864","MEAN_MOTION":13.10371162,"ECCENTRICITY":0.0001308,"INCLINATION":87.8843,"RA_OF_ASC_NODE":38.0506,"ARG_OF_PERICENTER":107.7211,"MEAN_ANOMALY":252.4059,"EPHEMERIS_TYPE":0,"CLASSIFICATION_TYPE":"U","NORAD_CAT_ID":61607,"ELEMENT_SET_NO":999,"REV_AT_EPOCH":8213,"BSTAR":-0.0015634000000000002,"MEAN_MOTION_DOT":-5.33e-06,"MEAN_MOTION_DDOT":0.0},{"OBJECT_NAME":"ONEWEB-0702","OBJECT_ID":"2024-188Q","EPOCH":"2026-06-08T04:03:31.487616","MEAN_MOTION":13.11416149,"ECCENTRICITY":0.0001657,"INCLINATION":87.8911,"RA_OF_ASC_NODE":22.7804,"ARG_OF_PERICENTER":118.7699,"MEAN_ANOMALY":241.3595,"EPHEMERIS_TYPE":0,"CLASSIFICATION_TYPE":"U","NORAD_CAT_ID":61608,"ELEMENT_SET_NO":999,"REV_AT_EPOCH":8330,"BSTAR":3.4514e-06,"MEAN_MOTION_DOT":1.4e-07,"MEAN_MOTION_DDOT":0.0},{"OBJECT_NAME":"ONEWEB-0704","OBJECT_ID":"2024-188R","EPOCH":"2026-06-08T05:05:13.840800","MEAN_MOTION":13.10370203,"ECCENTRICITY":0.0001852,"INCLINATION":87.8851,"RA_OF_ASC_NODE":38.0414,"ARG_OF_PERICENTER":117.157,"MEAN_ANOMALY":242.9746,"EPHEMERIS_TYPE":0,"CLASSIFICATION_TYPE":"U","NORAD_CAT_ID":61609,"ELEMENT_SET_NO":999,"REV_AT_EPOCH":8211,"BSTAR":-0.00021395,"MEAN_MOTION_DOT":-6.2e-07,"MEAN_MOTION_DDOT":0.0},{"OBJECT_NAME":"ONEWEB-0705","OBJECT_ID":"2024-188S","EPOCH":"2026-06-08T05:12:24.438528","MEAN_MOTION":13.10367509,"ECCENTRICITY":0.0002465,"INCLINATION":87.8848,"RA_OF_ASC_NODE":38.0462,"ARG_OF_PERICENTER":105.0169,"MEAN_ANOMALY":255.1232,"EPHEMERIS_TYPE":0,"CLASSIFICATION_TYPE":"U","NORAD_CAT_ID":61610,"ELEMENT_SET_NO":999,"REV_AT_EPOCH":7428,"BSTAR":-0.00010876,"MEAN_MOTION_DOT":-2.5e-07,"MEAN_MOTION_DDOT":0.0},{"OBJECT_NAME":"ONEWEB-0706","OBJECT_ID":"2024-188T","EPOCH":"2026-06-08T04:50:54.032064","MEAN_MOTION":13.10370668,"ECCENTRICITY":0.0001861,"INCLINATION":87.8842,"RA_OF_ASC_NODE":38.0547,"ARG_OF_PERICENTER":101.588,"MEAN_ANOMALY":258.5456,"EPHEMERIS_TYPE":0,"CLASSIFICATION_TYPE":"U","NORAD_CAT_ID":61611,"ELEMENT_SET_NO":999,"REV_AT_EPOCH":8220,"BSTAR":0.0011237,"MEAN_MOTION_DOT":4.05e-06,"MEAN_MOTION_DDOT":0.0},{"OBJECT_NAME":"ONEWEB-0707","OBJECT_ID":"2024-188U","EPOCH":"2026-06-08T05:00:27.113760","MEAN_MOTION":13.1036981,"ECCENTRICITY":0.000179,"INCLINATION":87.8845,"RA_OF_ASC_NODE":38.0468,"ARG_OF_PERICENTER":101.2055,"MEAN_ANOMALY":258.9273,"EPHEMERIS_TYPE":0,"CLASSIFICATION_TYPE":"U","NORAD_CAT_ID":61612,"ELEMENT_SET_NO":999,"REV_AT_EPOCH":8214,"BSTAR":0.00017726,"MEAN_MOTION_DOT":7.5e-07,"MEAN_MOTION_DDOT":0.0},{"OBJECT_NAME":"ONEWEB-0708","OBJECT_ID":"2024-188V","EPOCH":"2026-06-08T03:36:46.189440","MEAN_MOTION":13.10371793,"ECCENTRICITY":0.0002307,"INCLINATION":87.8841,"RA_OF_ASC_NODE":38.0776,"ARG_OF_PERICENTER":87.8466,"MEAN_ANOMALY":272.2925,"EPHEMERIS_TYPE":0,"CLASSIFICATION_TYPE":"U","NORAD_CAT_ID":61613,"ELEMENT_SET_NO":999,"REV_AT_EPOCH":8211,"BSTAR":-0.0016423,"MEAN_MOTION_DOT":-5.61e-06,"MEAN_MOTION_DDOT":0.0}]